ONEWEB-0124             
1 47270U 20100N   25362.12045708  .00000183  00000+0  47376-3 0  9999
2 47270  87.8921  24.6607 0001927  92.8308 267.3041 13.12444184242138
ONEWEB-0125             
1 47271U 20100P   25362.32714557 -.00000322  00000+0 -92946-3 0  9997
2 47271  87.8923  24.5837 0001975  97.3163 262.8190 13.12442497242227
ONEWEB-0126             
1 47272U 20100Q   25362.11888835  .00000155  00000+0  39515-3 0  9991
2 47272  87.8932  24.6488 0001668  95.4059 264.7260 13.12442366242261
ONEWEB-0127             
1 47273U 20100R   25362.08485340 -.00000093  00000+0 -29486-3 0  9991
2 47273  87.8917  24.6648 0001598  93.2386 266.8925 13.12439860242282
ONEWEB-0128             
1 47274U 20100S   25362.10687220 -.00000298  00000+0 -86339-3 0  9993
2 47274  87.8918  24.6764 0001803  84.0993 276.0341 13.12441354242303
ONEWEB-0129             
1 47275U 20100T   25362.31526820 -.00000215  00000+0 -63214-3 0  9991
2 47275  87.8929  24.5907 0000677 116.0834 244.0365 13.12440786242266
ONEWEB-0130             
1 47276U 20100U   25362.11367912 -.00000104  00000+0 -32376-3 0  9997
2 47276  87.8930  24.6254 0001660  91.1934 268.9385 13.12443436242208
ONEWEB-0131             
1 47277U 20100V   25362.11027350 -.00000230  00000+0 -67500-3 0  9994
2 47277  87.8930  24.6565 0001756  92.3078 267.8251 13.12442107242240
ONEWEB-0132             
1 47278U 20100W   25362.13908431  .00000440  00000+0  11869-2 0  9992
2 47278  87.8930  24.6522 0001806  91.0349 269.0986 13.12441390242148
ONEWEB-0133             
1 47279U 20100X   25362.07964234 -.00000076  00000+0 -24769-3 0  9990
2 47279  87.8927  24.6256 0001800  88.3658 271.7677 13.12441343242296
ONEWEB-0134             
1 47280U 20100Y   25362.12554740  .00000238  00000+0  62623-3 0  9994
2 47280  87.8929  24.6121 0001585  83.7578 276.3731 13.12443632242274
ONEWEB-0135             
1 47281U 20100Z   25362.09672931 -.00000435  00000+0 -12447-2 0  9993
2 47281  87.8927  24.6574 0001657  81.7295 278.4022 13.12441918242292
ONEWEB-0136             
1 47282U 20100AA  25362.11536472 -.00000023  00000+0 -98510-4 0  9996
2 47282  87.8930  24.6232 0001460  82.9234 277.2061 13.12442952242228
ONEWEB-0137             
1 47283U 20100AB  25362.14924239  .00000169  00000+0  43414-3 0  9993
2 47283  87.8930  24.6220 0001798  97.3621 262.7712 13.12441509242139
ONEWEB-0138             
1 47284U 20100AC  25362.12706710 -.00190203  00000+0 -53206+0 0  9991
2 47284  87.8929  24.6353 0005640 216.2416 143.8331 13.13420201242211
ONEWEB-0139             
1 47285U 20100AD  25362.32048430 -.00000324  00000+0 -93738-3 0  9994
2 47285  87.8924  24.5857 0001743  93.9621 266.1707 13.12441636242314
