[{"OBJECT_NAME":"ONEWEB-0124","OBJECT_ID":"2020-100N","EPOCH":"2025-12-28T02:53:27.491712","MEAN_MOTION":13.12444184,"ECCENTRICITY":0.00019273,"INCLINATION":87.8921,"RA_OF_ASC_NODE":24.6607,"ARG_OF_PERICENTER":92.8308,"MEAN_ANOMALY":267.3041,"EPHEMERIS_TYPE":0,"CLASSIFICATION_TYPE":"U","NORAD_CAT_ID":47270,"ELEMENT_SET_NO":999,"REV_AT_EPOCH":24213,"BSTAR":0.00047376344,"MEAN_MOTION_DOT":1.83e-6,"MEAN_MOTION_DDOT":0},{"OBJECT_NAME":"ONEWEB-0125","OBJECT_ID":"2020-100P","EPOCH":"2025-12-28T07:51:05.377248","MEAN_MOTION":13.12442497,"ECCENTRICITY":0.00019757,"INCLINATION":87.8923,"RA_OF_ASC_NODE":24.5837,"ARG_OF_PERICENTER":97.3163,"MEAN_ANOMALY":262.819,"EPHEMERIS_TYPE":0,"CLASSIFICATION_TYPE":"U","NORAD_CAT_ID":47271,"ELEMENT_SET_NO":999,"REV_AT_EPOCH":24222,"BSTAR":-0.00092945614,"MEAN_MOTION_DOT":-3.22e-6,"MEAN_MOTION_DDOT":0},{"OBJECT_NAME":"ONEWEB-0126","OBJECT_ID":"2020-100Q","EPOCH":"2025-12-28T02:51:11.953440","MEAN_MOTION":13.12442366,"ECCENTRICITY":0.00016689,"INCLINATION":87.8932,"RA_OF_ASC_NODE":24.6488,"ARG_OF_PERICENTER":95.4059,"MEAN_ANOMALY":264.726,"EPHEMERIS_TYPE":0,"CLASSIFICATION_TYPE":"U","NORAD_CAT_ID":47272,"ELEMENT_SET_NO":999,"REV_AT_EPOCH":24226,"BSTAR":0.00039514719,"MEAN_MOTION_DOT":1.55e-6,"MEAN_MOTION_DDOT":0},{"OBJECT_NAME":"ONEWEB-0127","OBJECT_ID":"2020-100R","EPOCH":"2025-12-28T02:02:11.333760","MEAN_MOTION":13.1243986,"ECCENTRICITY":0.00015983,"INCLINATION":87.8917,"RA_OF_ASC_NODE":24.6648,"ARG_OF_PERICENTER":93.2386,"MEAN_ANOMALY":266.8925,"EPHEMERIS_TYPE":0,"CLASSIFICATION_TYPE":"U","NORAD_CAT_ID":47273,"ELEMENT_SET_NO":999,"REV_AT_EPOCH":24228,"BSTAR":-0.00029485675,"MEAN_MOTION_DOT":-9.3e-7,"MEAN_MOTION_DDOT":0},{"OBJECT_NAME":"ONEWEB-0128","OBJECT_ID":"2020-100S","EPOCH":"2025-12-28T02:33:53.758080","MEAN_MOTION":13.12441354,"ECCENTRICITY":0.00018036,"INCLINATION":87.8918,"RA_OF_ASC_NODE":24.6764,"ARG_OF_PERICENTER":84.0993,"MEAN_ANOMALY":276.0341,"EPHEMERIS_TYPE":0,"CLASSIFICATION_TYPE":"U","NORAD_CAT_ID":47274,"ELEMENT_SET_NO":999,"REV_AT_EPOCH":24230,"BSTAR":-0.00086338764,"MEAN_MOTION_DOT":-2.98e-6,"MEAN_MOTION_DDOT":0},{"OBJECT_NAME":"ONEWEB-0129","OBJECT_ID":"2020-100T","EPOCH":"2025-12-28T07:33:59.172480","MEAN_MOTION":13.12440786,"ECCENTRICITY":6.77e-5,"INCLINATION":87.8929,"RA_OF_ASC_NODE":24.5907,"ARG_OF_PERICENTER":116.0834,"MEAN_ANOMALY":244.0365,"EPHEMERIS_TYPE":0,"CLASSIFICATION_TYPE":"U","NORAD_CAT_ID":47275,"ELEMENT_SET_NO":999,"REV_AT_EPOCH":24226,"BSTAR":-0.00063213567,"MEAN_MOTION_DOT":-2.15e-6,"MEAN_MOTION_DDOT":0},{"OBJECT_NAME":"ONEWEB-0130","OBJECT_ID":"2020-100U","EPOCH":"2025-12-28T02:43:41.875968","MEAN_MOTION":13.12443436,"ECCENTRICITY":0.00016602,"INCLINATION":87.893,"RA_OF_ASC_NODE":24.6254,"ARG_OF_PERICENTER":91.1934,"MEAN_ANOMALY":268.9385,"EPHEMERIS_TYPE":0,"CLASSIFICATION_TYPE":"U","NORAD_CAT_ID":47276,"ELEMENT_SET_NO":999,"REV_AT_EPOCH":24220,"BSTAR":-0.00032375659,"MEAN_MOTION_DOT":-1.04e-6,"MEAN_MOTION_DDOT":0},{"OBJECT_NAME":"ONEWEB-0131","OBJECT_ID":"2020-100V","EPOCH":"2025-12-28T02:38:47.630400","MEAN_MOTION":13.12442107,"ECCENTRICITY":0.00017569,"INCLINATION":87.893,"RA_OF_ASC_NODE":24.6565,"ARG_OF_PERICENTER":92.3078,"MEAN_ANOMALY":267.8251,"EPHEMERIS_TYPE":0,"CLASSIFICATION_TYPE":"U","NORAD_CAT_ID":47277,"ELEMENT_SET_NO":999,"REV_AT_EPOCH":24224,"BSTAR":-0.00067500108,"MEAN_MOTION_DOT":-2.3e-6,"MEAN_MOTION_DDOT":0},{"OBJECT_NAME":"ONEWEB-0132","OBJECT_ID":"2020-100W","EPOCH":"2025-12-28T03:20:16.884384","MEAN_MOTION":13.1244139,"ECCENTRICITY":0.00018062,"INCLINATION":87.893,"RA_OF_ASC_NODE":24.6522,"ARG_OF_PERICENTER":91.0349,"MEAN_ANOMALY":269.0986,"EPHEMERIS_TYPE":0,"CLASSIFICATION_TYPE":"U","NORAD_CAT_ID":47278,"ELEMENT_SET_NO":999,"REV_AT_EPOCH":24214,"BSTAR":0.0011868963,"MEAN_MOTION_DOT":4.4e-6,"MEAN_MOTION_DDOT":0},{"OBJECT_NAME":"ONEWEB-0133","OBJECT_ID":"2020-100X","EPOCH":"2025-12-28T01:54:41.098176","MEAN_MOTION":13.12441343,"ECCENTRICITY":0.00018002,"INCLINATION":87.8927,"RA_OF_ASC_NODE":24.6256,"ARG_OF_PERICENTER":88.3658,"MEAN_ANOMALY":271.7677,"EPHEMERIS_TYPE":0,"CLASSIFICATION_TYPE":"U","NORAD_CAT_ID":47279,"ELEMENT_SET_NO":999,"REV_AT_EPOCH":24229,"BSTAR":-0.00024769006,"MEAN_MOTION_DOT":-7.6e-7,"MEAN_MOTION_DDOT":0},{"OBJECT_NAME":"ONEWEB-0134","OBJECT_ID":"2020-100Y","EPOCH":"2025-12-28T03:00:47.295360","MEAN_MOTION":13.12443632,"ECCENTRICITY":0.00015857,"INCLINATION":87.8929,"RA_OF_ASC_NODE":24.6121,"ARG_OF_PERICENTER":83.7578,"MEAN_ANOMALY":276.3731,"EPHEMERIS_TYPE":0,"CLASSIFICATION_TYPE":"U","NORAD_CAT_ID":47280,"ELEMENT_SET_NO":999,"REV_AT_EPOCH":24227,"BSTAR":0.00062623269,"MEAN_MOTION_DOT":2.38e-6,"MEAN_MOTION_DDOT":0},{"OBJECT_NAME":"ONEWEB-0135","OBJECT_ID":"2020-100Z","EPOCH":"2025-12-28T02:19:17.412384","MEAN_MOTION":13.12441918,"ECCENTRICITY":0.00016576,"INCLINATION":87.8927,"RA_OF_ASC_NODE":24.6574,"ARG_OF_PERICENTER":81.7295,"MEAN_ANOMALY":278.4022,"EPHEMERIS_TYPE":0,"CLASSIFICATION_TYPE":"U","NORAD_CAT_ID":47281,"ELEMENT_SET_NO":999,"REV_AT_EPOCH":24229,"BSTAR":-0.0012446531,"MEAN_MOTION_DOT":-4.35e-6,"MEAN_MOTION_DDOT":0},{"OBJECT_NAME":"ONEWEB-0136","OBJECT_ID":"2020-100AA","EPOCH":"2025-12-28T02:46:07.511808","MEAN_MOTION":13.12442952,"ECCENTRICITY":0.00014603,"INCLINATION":87.893,"RA_OF_ASC_NODE":24.6232,"ARG_OF_PERICENTER":82.9234,"MEAN_ANOMALY":277.2061,"EPHEMERIS_TYPE":0,"CLASSIFICATION_TYPE":"U","NORAD_CAT_ID":47282,"ELEMENT_SET_NO":999,"REV_AT_EPOCH":24222,"BSTAR":-9.8510409e-5,"MEAN_MOTION_DOT":-2.3e-7,"MEAN_MOTION_DDOT":0},{"OBJECT_NAME":"ONEWEB-0137","OBJECT_ID":"2020-100AB","EPOCH":"2025-12-28T03:34:54.542496","MEAN_MOTION":13.12441509,"ECCENTRICITY":0.00017987,"INCLINATION":87.893,"RA_OF_ASC_NODE":24.622,"ARG_OF_PERICENTER":97.3621,"MEAN_ANOMALY":262.7712,"EPHEMERIS_TYPE":0,"CLASSIFICATION_TYPE":"U","NORAD_CAT_ID":47283,"ELEMENT_SET_NO":999,"REV_AT_EPOCH":24213,"BSTAR":0.00043414239,"MEAN_MOTION_DOT":1.69e-6,"MEAN_MOTION_DDOT":0},{"OBJECT_NAME":"ONEWEB-0138","OBJECT_ID":"2020-100AC","EPOCH":"2025-12-28T03:02:58.597440","MEAN_MOTION":13.13420201,"ECCENTRICITY":0.00056407,"INCLINATION":87.8929,"RA_OF_ASC_NODE":24.6353,"ARG_OF_PERICENTER":216.2416,"MEAN_ANOMALY":143.8331,"EPHEMERIS_TYPE":0,"CLASSIFICATION_TYPE":"U","NORAD_CAT_ID":47284,"ELEMENT_SET_NO":999,"REV_AT_EPOCH":24221,"BSTAR":-0.53206015,"MEAN_MOTION_DOT":-0.00190203,"MEAN_MOTION_DDOT":0},{"OBJECT_NAME":"ONEWEB-0139","OBJECT_ID":"2020-100AD","EPOCH":"2025-12-28T07:41:29.843520","MEAN_MOTION":13.12441636,"ECCENTRICITY":0.0001743,"INCLINATION":87.8924,"RA_OF_ASC_NODE":24.5857,"ARG_OF_PERICENTER":93.9621,"MEAN_ANOMALY":266.1707,"EPHEMERIS_TYPE":0,"CLASSIFICATION_TYPE":"U","NORAD_CAT_ID":47285,"ELEMENT_SET_NO":999,"REV_AT_EPOCH":24231,"BSTAR":-0.00093738196,"MEAN_MOTION_DOT":-3.24e-6,"MEAN_MOTION_DDOT":0}]
